STARLINK-35955          
1 66635U 25271U   25344.50003471 -.01962296  00000+0 -27408-1 0  9999
2 66635  53.1597 197.9540 0001170 107.8576  72.1736 15.59685372  3882
STARLINK-35968          
1 66636U 25271V   25344.50003471 -.01966369  00000+0 -27468-1 0  9991
2 66636  53.1598 197.9496 0001242 108.6494  73.2967 15.59689059  3886
STARLINK-35953          
1 66637U 25271W   25344.50003471 -.01957848  00000+0 -27343-1 0  9996
2 66637  53.1598 197.9459 0001053 102.9795  80.8872 15.59681846  3882
STARLINK-35972          
1 66638U 25271X   25344.50003471 -.01955240  00000+0 -27301-1 0  9995
2 66638  53.1598 197.9424 0001127 102.6229  83.1592 15.59680889  3887
STARLINK-35908          
1 66639U 25271Y   25344.50003471 -.01955220  00000+0 -27302-1 0  9995
2 66639  53.1599 197.9377 0001125 103.1754  84.5250 15.59680143  3882
STARLINK-35921          
1 66640U 25271Z   25344.50003471 -.01972433  00000+0 -27562-1 0  9990
2 66640  53.1599 197.9340 0001213 110.9816  78.6323 15.59691764  3883
STARLINK-35923          
1 66641U 25271AA  25344.50003471 -.01977615  00000+0 -27643-1 0  9998
2 66641  53.1599 197.9170 0001095 108.3321  88.9488 15.59694292  3880
STARLINK-35926          
1 66642U 25271AB  25344.50003471 -.01962593  00000+0 -27414-1 0  9994
2 66642  53.1598 197.9219 0001085 103.8959  91.4712 15.59684918  3647
STARLINK-35918          
1 66643U 25271AC  25344.50003471 -.01967947  00000+0 -27495-1 0  9992
2 66643  53.1599 197.9303 0001230 110.2798  81.2531 15.59688071  3884
STARLINK-35938          
1 66644U 25271AD  25344.50003471 -.01965163  00000+0 -27452-1 0  9994
2 66644  53.1597 197.9262 0001212 113.2227  80.2264 15.59686877  3881
SHENZHOU-22             
1 66645U 25272A   25344.28052965  .00034646  00000+0  43407-3 0  9993
2 66645  41.4682  31.6356 0008802  10.5172 349.5849 15.59014677263572
COSMOS 2597 (RODNIK-S *)
1 66647U 25273A   25344.54031240  .00000048  00000+0  27743-3 0  9992
2 66647  82.4985 287.8147 0007938 294.4036  65.6215 12.41951316  1862
