CCSDS_OMM_VERS = 2.0
CREATION_DATE  = 
ORIGINATOR     = 

OBJECT_NAME    = STARLINK-35955
OBJECT_ID      = 2025-271U
CENTER_NAME    = EARTH
REF_FRAME      = TEME
TIME_SYSTEM    = UTC
MEAN_ELEMENT_THEORY = SGP/SGP4

EPOCH          = 2025-12-10T12:00:02.998944
MEAN_MOTION    = 15.59685372
ECCENTRICITY   = .000117
INCLINATION    = 53.1597
RA_OF_ASC_NODE = 197.9540
ARG_OF_PERICENTER = 107.8576
MEAN_ANOMALY   = 72.1736

EPHEMERIS_TYPE = 0
CLASSIFICATION_TYPE = U
NORAD_CAT_ID   = 66635
ELEMENT_SET_NO = 999
REV_AT_EPOCH   = 388
BSTAR          = -.27408E-1
MEAN_MOTION_DOT = -.1962296E-1
MEAN_MOTION_DDOT = 0

CCSDS_OMM_VERS = 2.0
CREATION_DATE  = 
ORIGINATOR     = 

OBJECT_NAME    = STARLINK-35968
OBJECT_ID      = 2025-271V
CENTER_NAME    = EARTH
REF_FRAME      = TEME
TIME_SYSTEM    = UTC
MEAN_ELEMENT_THEORY = SGP/SGP4

EPOCH          = 2025-12-10T12:00:02.998944
MEAN_MOTION    = 15.59689059
ECCENTRICITY   = .0001242
INCLINATION    = 53.1598
RA_OF_ASC_NODE = 197.9496
ARG_OF_PERICENTER = 108.6494
MEAN_ANOMALY   = 73.2967

EPHEMERIS_TYPE = 0
CLASSIFICATION_TYPE = U
NORAD_CAT_ID   = 66636
ELEMENT_SET_NO = 999
REV_AT_EPOCH   = 388
BSTAR          = -.27468E-1
MEAN_MOTION_DOT = -.1966369E-1
MEAN_MOTION_DDOT = 0

CCSDS_OMM_VERS = 2.0
CREATION_DATE  = 
ORIGINATOR     = 

OBJECT_NAME    = STARLINK-35953
OBJECT_ID      = 2025-271W
CENTER_NAME    = EARTH
REF_FRAME      = TEME
TIME_SYSTEM    = UTC
MEAN_ELEMENT_THEORY = SGP/SGP4

EPOCH          = 2025-12-10T12:00:02.998944
MEAN_MOTION    = 15.59681846
ECCENTRICITY   = .0001053
INCLINATION    = 53.1598
RA_OF_ASC_NODE = 197.9459
ARG_OF_PERICENTER = 102.9795
MEAN_ANOMALY   = 80.8872

EPHEMERIS_TYPE = 0
CLASSIFICATION_TYPE = U
NORAD_CAT_ID   = 66637
ELEMENT_SET_NO = 999
REV_AT_EPOCH   = 388
BSTAR          = -.27343E-1
MEAN_MOTION_DOT = -.1957848E-1
MEAN_MOTION_DDOT = 0

CCSDS_OMM_VERS = 2.0
CREATION_DATE  = 
ORIGINATOR     = 

OBJECT_NAME    = STARLINK-35972
OBJECT_ID      = 2025-271X
CENTER_NAME    = EARTH
REF_FRAME      = TEME
TIME_SYSTEM    = UTC
MEAN_ELEMENT_THEORY = SGP/SGP4

EPOCH          = 2025-12-10T12:00:02.998944
MEAN_MOTION    = 15.59680889
ECCENTRICITY   = .0001127
INCLINATION    = 53.1598
RA_OF_ASC_NODE = 197.9424
ARG_OF_PERICENTER = 102.6229
MEAN_ANOMALY   = 83.1592

EPHEMERIS_TYPE = 0
CLASSIFICATION_TYPE = U
NORAD_CAT_ID   = 66638
ELEMENT_SET_NO = 999
REV_AT_EPOCH   = 388
BSTAR          = -.27301E-1
MEAN_MOTION_DOT = -.195524E-1
MEAN_MOTION_DDOT = 0

CCSDS_OMM_VERS = 2.0
CREATION_DATE  = 
ORIGINATOR     = 

OBJECT_NAME    = STARLINK-35908
OBJECT_ID      = 2025-271Y
CENTER_NAME    = EARTH
REF_FRAME      = TEME
TIME_SYSTEM    = UTC
MEAN_ELEMENT_THEORY = SGP/SGP4

EPOCH          = 2025-12-10T12:00:02.998944
MEAN_MOTION    = 15.59680143
ECCENTRICITY   = .0001125
INCLINATION    = 53.1599
RA_OF_ASC_NODE = 197.9377
ARG_OF_PERICENTER = 103.1754
MEAN_ANOMALY   = 84.5250

EPHEMERIS_TYPE = 0
CLASSIFICATION_TYPE = U
NORAD_CAT_ID   = 66639
ELEMENT_SET_NO = 999
REV_AT_EPOCH   = 388
BSTAR          = -.27302E-1
MEAN_MOTION_DOT = -.195522E-1
MEAN_MOTION_DDOT = 0

CCSDS_OMM_VERS = 2.0
CREATION_DATE  = 
ORIGINATOR     = 

OBJECT_NAME    = STARLINK-35921
OBJECT_ID      = 2025-271Z
CENTER_NAME    = EARTH
REF_FRAME      = TEME
TIME_SYSTEM    = UTC
MEAN_ELEMENT_THEORY = SGP/SGP4

EPOCH          = 2025-12-10T12:00:02.998944
MEAN_MOTION    = 15.59691764
ECCENTRICITY   = .0001213
INCLINATION    = 53.1599
RA_OF_ASC_NODE = 197.9340
ARG_OF_PERICENTER = 110.9816
MEAN_ANOMALY   = 78.6323

EPHEMERIS_TYPE = 0
CLASSIFICATION_TYPE = U
NORAD_CAT_ID   = 66640
ELEMENT_SET_NO = 999
REV_AT_EPOCH   = 388
BSTAR          = -.27562E-1
MEAN_MOTION_DOT = -.1972433E-1
MEAN_MOTION_DDOT = 0

CCSDS_OMM_VERS = 2.0
CREATION_DATE  = 
ORIGINATOR     = 

OBJECT_NAME    = STARLINK-35923
OBJECT_ID      = 2025-271AA
CENTER_NAME    = EARTH
REF_FRAME      = TEME
TIME_SYSTEM    = UTC
MEAN_ELEMENT_THEORY = SGP/SGP4

EPOCH          = 2025-12-10T12:00:02.998944
MEAN_MOTION    = 15.59694292
ECCENTRICITY   = .0001095
INCLINATION    = 53.1599
RA_OF_ASC_NODE = 197.9170
ARG_OF_PERICENTER = 108.3321
MEAN_ANOMALY   = 88.9488

EPHEMERIS_TYPE = 0
CLASSIFICATION_TYPE = U
NORAD_CAT_ID   = 66641
ELEMENT_SET_NO = 999
REV_AT_EPOCH   = 388
BSTAR          = -.27643E-1
MEAN_MOTION_DOT = -.1977615E-1
MEAN_MOTION_DDOT = 0

CCSDS_OMM_VERS = 2.0
CREATION_DATE  = 
ORIGINATOR     = 

OBJECT_NAME    = STARLINK-35926
OBJECT_ID      = 2025-271AB
CENTER_NAME    = EARTH
REF_FRAME      = TEME
TIME_SYSTEM    = UTC
MEAN_ELEMENT_THEORY = SGP/SGP4

EPOCH          = 2025-12-10T12:00:02.998944
MEAN_MOTION    = 15.59684918
ECCENTRICITY   = .0001085
INCLINATION    = 53.1598
RA_OF_ASC_NODE = 197.9219
ARG_OF_PERICENTER = 103.8959
MEAN_ANOMALY   = 91.4712

EPHEMERIS_TYPE = 0
CLASSIFICATION_TYPE = U
NORAD_CAT_ID   = 66642
ELEMENT_SET_NO = 999
REV_AT_EPOCH   = 364
BSTAR          = -.27414E-1
MEAN_MOTION_DOT = -.1962593E-1
MEAN_MOTION_DDOT = 0

CCSDS_OMM_VERS = 2.0
CREATION_DATE  = 
ORIGINATOR     = 

OBJECT_NAME    = STARLINK-35918
OBJECT_ID      = 2025-271AC
CENTER_NAME    = EARTH
REF_FRAME      = TEME
TIME_SYSTEM    = UTC
MEAN_ELEMENT_THEORY = SGP/SGP4

EPOCH          = 2025-12-10T12:00:02.998944
MEAN_MOTION    = 15.59688071
ECCENTRICITY   = .000123
INCLINATION    = 53.1599
RA_OF_ASC_NODE = 197.9303
ARG_OF_PERICENTER = 110.2798
MEAN_ANOMALY   = 81.2531

EPHEMERIS_TYPE = 0
CLASSIFICATION_TYPE = U
NORAD_CAT_ID   = 66643
ELEMENT_SET_NO = 999
REV_AT_EPOCH   = 388
BSTAR          = -.27495E-1
MEAN_MOTION_DOT = -.1967947E-1
MEAN_MOTION_DDOT = 0

CCSDS_OMM_VERS = 2.0
CREATION_DATE  = 
ORIGINATOR     = 

OBJECT_NAME    = STARLINK-35938
OBJECT_ID      = 2025-271AD
CENTER_NAME    = EARTH
REF_FRAME      = TEME
TIME_SYSTEM    = UTC
MEAN_ELEMENT_THEORY = SGP/SGP4

EPOCH          = 2025-12-10T12:00:02.998944
MEAN_MOTION    = 15.59686877
ECCENTRICITY   = .0001212
INCLINATION    = 53.1597
RA_OF_ASC_NODE = 197.9262
ARG_OF_PERICENTER = 113.2227
MEAN_ANOMALY   = 80.2264

EPHEMERIS_TYPE = 0
CLASSIFICATION_TYPE = U
NORAD_CAT_ID   = 66644
ELEMENT_SET_NO = 999
REV_AT_EPOCH   = 388
BSTAR          = -.27452E-1
MEAN_MOTION_DOT = -.1965163E-1
MEAN_MOTION_DDOT = 0

CCSDS_OMM_VERS = 2.0
CREATION_DATE  = 
ORIGINATOR     = 

OBJECT_NAME    = SHENZHOU-22
OBJECT_ID      = 2025-272A
CENTER_NAME    = EARTH
REF_FRAME      = TEME
TIME_SYSTEM    = UTC
MEAN_ELEMENT_THEORY = SGP/SGP4

EPOCH          = 2025-12-10T06:43:57.761760
MEAN_MOTION    = 15.59014677
ECCENTRICITY   = .00088021
INCLINATION    = 41.4682
RA_OF_ASC_NODE = 31.6356
ARG_OF_PERICENTER = 10.5172
MEAN_ANOMALY   = 349.5849

EPHEMERIS_TYPE = 0
CLASSIFICATION_TYPE = U
NORAD_CAT_ID   = 66645
ELEMENT_SET_NO = 999
REV_AT_EPOCH   = 26357
BSTAR          = .43406543E-3
MEAN_MOTION_DOT = .34646E-3
MEAN_MOTION_DDOT = 0

CCSDS_OMM_VERS = 2.0
CREATION_DATE  = 
ORIGINATOR     = 

OBJECT_NAME    = COSMOS 2597 (RODNIK-S 22)
OBJECT_ID      = 2025-273A
CENTER_NAME    = EARTH
REF_FRAME      = TEME
TIME_SYSTEM    = UTC
MEAN_ELEMENT_THEORY = SGP/SGP4

EPOCH          = 2025-12-10T12:58:02.991360
MEAN_MOTION    = 12.41951316
ECCENTRICITY   = .0007938
INCLINATION    = 82.4985
RA_OF_ASC_NODE = 287.8147
ARG_OF_PERICENTER = 294.4036
MEAN_ANOMALY   = 65.6215

EPHEMERIS_TYPE = 0
CLASSIFICATION_TYPE = U
NORAD_CAT_ID   = 66647
ELEMENT_SET_NO = 999
REV_AT_EPOCH   = 186
BSTAR          = .27743E-3
MEAN_MOTION_DOT = .48E-6
MEAN_MOTION_DDOT = 0

